CCSDS_OMM_VERS = 2.0
CREATION_DATE  = 
ORIGINATOR     = 

OBJECT_NAME    = SL-4 R/B
OBJECT_ID      = 2014-021B
CENTER_NAME    = EARTH
REF_FRAME      = TEME
TIME_SYSTEM    = UTC
MEAN_ELEMENT_THEORY = SGP/SGP4

EPOCH          = 2026-02-08T12:45:42.017184
MEAN_MOTION    = 15.38245898
ECCENTRICITY   = .0099013
INCLINATION    = 51.6065
RA_OF_ASC_NODE = 119.4159
ARG_OF_PERICENTER = 356.7201
MEAN_ANOMALY   = 3.3122

EPHEMERIS_TYPE = 0
CLASSIFICATION_TYPE = U
NORAD_CAT_ID   = 39679
ELEMENT_SET_NO = 999
REV_AT_EPOCH   = 65178
BSTAR          = .249E-3
MEAN_MOTION_DOT = .10841E-3
MEAN_MOTION_DDOT = 0

CCSDS_OMM_VERS = 2.0
CREATION_DATE  = 
ORIGINATOR     = 

OBJECT_NAME    = ALOS-2
OBJECT_ID      = 2014-029A
CENTER_NAME    = EARTH
REF_FRAME      = TEME
TIME_SYSTEM    = UTC
MEAN_ELEMENT_THEORY = SGP/SGP4

EPOCH          = 2026-02-09T04:15:58.630752
MEAN_MOTION    = 14.79501772
ECCENTRICITY   = .00015039
INCLINATION    = 97.9210
RA_OF_ASC_NODE = 139.1853
ARG_OF_PERICENTER = 96.1098
MEAN_ANOMALY   = 264.0285

EPHEMERIS_TYPE = 0
CLASSIFICATION_TYPE = U
NORAD_CAT_ID   = 39766
ELEMENT_SET_NO = 999
REV_AT_EPOCH   = 63265
BSTAR          = .11020671E-3
MEAN_MOTION_DOT = .772E-5
MEAN_MOTION_DDOT = 0

CCSDS_OMM_VERS = 2.0
CREATION_DATE  = 
ORIGINATOR     = 

OBJECT_NAME    = YAOGAN-29
OBJECT_ID      = 2015-069A
CENTER_NAME    = EARTH
REF_FRAME      = TEME
TIME_SYSTEM    = UTC
MEAN_ELEMENT_THEORY = SGP/SGP4

EPOCH          = 2026-02-09T06:04:56.618112
MEAN_MOTION    = 14.82964390
ECCENTRICITY   = .00029222
INCLINATION    = 98.0178
RA_OF_ASC_NODE = 68.6032
ARG_OF_PERICENTER = 83.0030
MEAN_ANOMALY   = 277.1515

EPHEMERIS_TYPE = 0
CLASSIFICATION_TYPE = U
NORAD_CAT_ID   = 41038
ELEMENT_SET_NO = 999
REV_AT_EPOCH   = 55166
BSTAR          = .10574504E-3
MEAN_MOTION_DOT = .804E-5
MEAN_MOTION_DDOT = 0

CCSDS_OMM_VERS = 2.0
CREATION_DATE  = 
ORIGINATOR     = 

OBJECT_NAME    = ASTRO-H (HITOMI)
OBJECT_ID      = 2016-012A
CENTER_NAME    = EARTH
REF_FRAME      = TEME
TIME_SYSTEM    = UTC
MEAN_ELEMENT_THEORY = SGP/SGP4

EPOCH          = 2026-02-09T01:49:00.784992
MEAN_MOTION    = 15.09794381
ECCENTRICITY   = .00099231
INCLINATION    = 30.9978
RA_OF_ASC_NODE = 181.1681
ARG_OF_PERICENTER = 44.6577
MEAN_ANOMALY   = 315.4859

EPHEMERIS_TYPE = 0
CLASSIFICATION_TYPE = U
NORAD_CAT_ID   = 41337
ELEMENT_SET_NO = 999
REV_AT_EPOCH   = 54790
BSTAR          = .20772786E-3
MEAN_MOTION_DOT = .3537E-4
MEAN_MOTION_DDOT = 0

CCSDS_OMM_VERS = 2.0
CREATION_DATE  = 
ORIGINATOR     = 

OBJECT_NAME    = HXMT (HUIYAN)
OBJECT_ID      = 2017-034A
CENTER_NAME    = EARTH
REF_FRAME      = TEME
TIME_SYSTEM    = UTC
MEAN_ELEMENT_THEORY = SGP/SGP4

EPOCH          = 2026-02-08T21:03:57.530880
MEAN_MOTION    = 15.17079356
ECCENTRICITY   = .00308768
INCLINATION    = 43.0129
RA_OF_ASC_NODE = 176.8074
ARG_OF_PERICENTER = 50.8463
MEAN_ANOMALY   = 309.5121

EPHEMERIS_TYPE = 0
CLASSIFICATION_TYPE = U
NORAD_CAT_ID   = 42758
ELEMENT_SET_NO = 999
REV_AT_EPOCH   = 47816
BSTAR          = .32433529E-3
MEAN_MOTION_DOT = .6382E-4
MEAN_MOTION_DDOT = 0

CCSDS_OMM_VERS = 2.0
CREATION_DATE  = 
ORIGINATOR     = 

OBJECT_NAME    = CZ-2C R/B
OBJECT_ID      = 2018-054D
CENTER_NAME    = EARTH
REF_FRAME      = TEME
TIME_SYSTEM    = UTC
MEAN_ELEMENT_THEORY = SGP/SGP4

EPOCH          = 2026-02-08T16:44:12.217632
MEAN_MOTION    = 15.96216661
ECCENTRICITY   = .00124924
INCLINATION    = 35.1281
RA_OF_ASC_NODE = 142.7544
ARG_OF_PERICENTER = 22.5709
MEAN_ANOMALY   = 337.5578

EPHEMERIS_TYPE = 0
CLASSIFICATION_TYPE = U
NORAD_CAT_ID   = 43521
ELEMENT_SET_NO = 999
REV_AT_EPOCH   = 42424
BSTAR          = .75284669E-3
MEAN_MOTION_DOT = .33007E-2
MEAN_MOTION_DDOT = .43548624E-4

CCSDS_OMM_VERS = 2.0
CREATION_DATE  = 
ORIGINATOR     = 

OBJECT_NAME    = SAOCOM 1A
OBJECT_ID      = 2018-076A
CENTER_NAME    = EARTH
REF_FRAME      = TEME
TIME_SYSTEM    = UTC
MEAN_ELEMENT_THEORY = SGP/SGP4

EPOCH          = 2026-02-09T06:30:16.224768
MEAN_MOTION    = 14.82158611
ECCENTRICITY   = .00013843
INCLINATION    = 97.8873
RA_OF_ASC_NODE = 228.8461
ARG_OF_PERICENTER = 84.6261
MEAN_ANOMALY   = 275.5110

EPHEMERIS_TYPE = 0
CLASSIFICATION_TYPE = U
NORAD_CAT_ID   = 43641
ELEMENT_SET_NO = 999
REV_AT_EPOCH   = 39715
BSTAR          = .75932539E-4
MEAN_MOTION_DOT = .552E-5
MEAN_MOTION_DDOT = 0

CCSDS_OMM_VERS = 2.0
CREATION_DATE  = 
ORIGINATOR     = 

OBJECT_NAME    = H-2A R/B
OBJECT_ID      = 2018-084L
CENTER_NAME    = EARTH
REF_FRAME      = TEME
TIME_SYSTEM    = UTC
MEAN_ELEMENT_THEORY = SGP/SGP4

EPOCH          = 2026-02-09T03:45:11.316672
MEAN_MOTION    = 15.40089953
ECCENTRICITY   = .00263461
INCLINATION    = 98.8764
RA_OF_ASC_NODE = 251.4726
ARG_OF_PERICENTER = 121.3264
MEAN_ANOMALY   = 239.0561

EPHEMERIS_TYPE = 0
CLASSIFICATION_TYPE = U
NORAD_CAT_ID   = 43682
ELEMENT_SET_NO = 999
REV_AT_EPOCH   = 40138
BSTAR          = .47523129E-3
MEAN_MOTION_DOT = .19163E-3
MEAN_MOTION_DDOT = 0

CCSDS_OMM_VERS = 2.0
CREATION_DATE  = 
ORIGINATOR     = 

OBJECT_NAME    = SAOCOM 1B
OBJECT_ID      = 2020-059A
CENTER_NAME    = EARTH
REF_FRAME      = TEME
TIME_SYSTEM    = UTC
MEAN_ELEMENT_THEORY = SGP/SGP4

EPOCH          = 2026-02-09T07:15:14.914080
MEAN_MOTION    = 14.82165992
ECCENTRICITY   = .00013913
INCLINATION    = 97.8871
RA_OF_ASC_NODE = 227.9754
ARG_OF_PERICENTER = 83.3172
MEAN_ANOMALY   = 276.8200

EPHEMERIS_TYPE = 0
CLASSIFICATION_TYPE = U
NORAD_CAT_ID   = 46265
ELEMENT_SET_NO = 999
REV_AT_EPOCH   = 29454
BSTAR          = .58134943E-4
MEAN_MOTION_DOT = .411E-5
MEAN_MOTION_DDOT = 0

CCSDS_OMM_VERS = 2.0
CREATION_DATE  = 
ORIGINATOR     = 

OBJECT_NAME    = CSS (TIANHE)
OBJECT_ID      = 2021-035A
CENTER_NAME    = EARTH
REF_FRAME      = TEME
TIME_SYSTEM    = UTC
MEAN_ELEMENT_THEORY = SGP/SGP4

EPOCH          = 2026-02-09T06:59:45.167136
MEAN_MOTION    = 15.59379177
ECCENTRICITY   = .00047468
INCLINATION    = 41.4685
RA_OF_ASC_NODE = 20.7882
ARG_OF_PERICENTER = 37.5365
MEAN_ANOMALY   = 322.5804

EPHEMERIS_TYPE = 0
CLASSIFICATION_TYPE = U
NORAD_CAT_ID   = 48274
ELEMENT_SET_NO = 999
REV_AT_EPOCH   = 27317
BSTAR          = .22143477E-3
MEAN_MOTION_DOT = .17698E-3
MEAN_MOTION_DDOT = 0

CCSDS_OMM_VERS = 2.0
CREATION_DATE  = 
ORIGINATOR     = 

OBJECT_NAME    = COSMOS 2550
OBJECT_ID      = 2021-056A
CENTER_NAME    = EARTH
REF_FRAME      = TEME
TIME_SYSTEM    = UTC
MEAN_ELEMENT_THEORY = SGP/SGP4

EPOCH          = 2026-02-09T06:46:43.675680
MEAN_MOTION    = 15.33827436
ECCENTRICITY   = .00083998
INCLINATION    = 67.1451
RA_OF_ASC_NODE = 126.8597
ARG_OF_PERICENTER = 269.9663
MEAN_ANOMALY   = 90.0529

EPHEMERIS_TYPE = 0
CLASSIFICATION_TYPE = U
NORAD_CAT_ID   = 48865
ELEMENT_SET_NO = 999
REV_AT_EPOCH   = 25910
BSTAR          = .2198681E-5
MEAN_MOTION_DOT = -.119E-5
MEAN_MOTION_DDOT = 0

CCSDS_OMM_VERS = 2.0
CREATION_DATE  = 
ORIGINATOR     = 

OBJECT_NAME    = CZ-2C R/B
OBJECT_ID      = 2022-058K
CENTER_NAME    = EARTH
REF_FRAME      = TEME
TIME_SYSTEM    = UTC
MEAN_ELEMENT_THEORY = SGP/SGP4

EPOCH          = 2026-02-09T04:54:38.653920
MEAN_MOTION    = 15.52227882
ECCENTRICITY   = .00423301
INCLINATION    = 50.1884
RA_OF_ASC_NODE = 104.5891
ARG_OF_PERICENTER = 79.6650
MEAN_ANOMALY   = 280.9087

EPHEMERIS_TYPE = 0
CLASSIFICATION_TYPE = U
NORAD_CAT_ID   = 52794
ELEMENT_SET_NO = 999
REV_AT_EPOCH   = 20570
BSTAR          = .51191884E-3
MEAN_MOTION_DOT = .32538E-3
MEAN_MOTION_DDOT = 0

