SL-4 R/B                
1 39679U 14021B   26039.53173631  .00010841  00000+0  24900-3 0  9992
2 39679  51.6065 119.4159 0099013 356.7201   3.3122 15.38245898651786
ALOS-2                  
1 39766U 14029A   26040.17776193  .00000772  00000+0  11021-3 0  9993
2 39766  97.9210 139.1853 0001503  96.1098 264.0285 14.79501772632655
YAOGAN-29               
1 41038U 15069A   26040.25343308  .00000804  00000+0  10575-3 0  9999
2 41038  98.0178  68.6032 0002922  83.0030 277.1515 14.82964390551662
ASTRO-H (HITOMI)        
1 41337U 16012A   26040.07570353  .00003537  00000+0  20773-3 0  9999
2 41337  30.9978 181.1681 0009923  44.6577 315.4859 15.09794381547905
HXMT (HUIYAN)           
1 42758U 17034A   26039.87774920  .00006382  00000+0  32434-3 0  9992
2 42758  43.0129 176.8074 0030876  50.8463 309.5121 15.17079356478161
CZ-2C R/B               
1 43521U 18054D   26039.69736363  .00330070  43549-4  75285-3 0  9998
2 43521  35.1281 142.7544 0012492  22.5709 337.5578 15.96216661424244
SAOCOM 1A               
1 43641U 18076A   26040.27102112  .00000552  00000+0  75933-4 0  9990
2 43641  97.8873 228.8461 0001384  84.6261 275.5110 14.82158611397159
H-2A R/B                
1 43682U 18084L   26040.15638098  .00019163  00000+0  47523-3 0  9999
2 43682  98.8764 251.4726 0026346 121.3264 239.0561 15.40089953401380
SAOCOM 1B               
1 46265U 20059A   26040.30225595  .00000411  00000+0  58135-4 0  9993
2 46265  97.8871 227.9754 0001391  83.3172 276.8200 14.82165992294545
CSS (TIANHE)            
1 48274U 21035A   26040.29149499  .00017698  00000+0  22143-3 0  9990
2 48274  41.4685  20.7882 0004746  37.5365 322.5804 15.59379177273170
COSMOS 2550             
1 48865U 21056A   26040.28244995 -.00000119  00000+0  21987-5 0  9993
2 48865  67.1451 126.8597 0008399 269.9663  90.0529 15.33827436259109
CZ-2C R/B               
1 52794U 22058K   26040.20461405  .00032538  00000+0  51192-3 0  9999
2 52794  50.1884 104.5891 0042330  79.6650 280.9087 15.52227882205708
